start=new Date('2022-08-10T00:00:00.000Z').valueOf();
sats=[{"OBJECT_TYPE":"PAYLOAD","DECAY_DATE":null,"PERIOD":"95.593","BSTAR":"0.00006298900000","MEAN_ANOMALY":"283.1910","MEAN_MOTION_DDOT":"0.0000000000000","APOAPSIS":"548.195","REF_FRAME":"TEME","PERIAPSIS":"546.272","RA_OF_ASC_NODE":"269.0162","CENTER_NAME":"EARTH","ECCENTRICITY":"0.00013880","COUNTRY_CODE":"US","OBJECT_ID":"2020-070AJ","EPHEMERIS_TYPE":"0","CLASSIFICATION_TYPE":"U","GP_ID":"209905933","FILE":"3533103","TIME_SYSTEM":"UTC","MEAN_MOTION_DOT":"0.00000657","RCS_SIZE":"LARGE","SITE":"AFETR","REV_AT_EPOCH":"10263","INCLINATION":"53.0538","NORAD_CAT_ID":"46564","TLE_LINE1":"1 46564U 20070AJ  22221.56416231  .00000657  00000-0  62989-4 0  9997","EPOCH":"2022-08-09T13:32:23.623584","LAUNCH_DATE":"2020-10-06","ELEMENT_SET_NO":"999","TLE_LINE2":"2 46564  53.0538 269.0162 0001388  76.9234 283.1910 15.06393475102637","SEMIMAJOR_AXIS":"6925.369","OBJECT_NAME":"STARLINK-1733","MEAN_MOTION":"15.06393475","MEAN_ELEMENT_THEORY":"SGP4","ARG_OF_PERICENTER":"76.9234"},{"RA_OF_ASC_NODE":"269.1302","CENTER_NAME":"EARTH","ECCENTRICITY":"0.00013280","COUNTRY_CODE":"US","OBJECT_ID":"2020-070AK","EPHEMERIS_TYPE":"0","GP_ID":"209897178","CLASSIFICATION_TYPE":"U","FILE":"3532882","OBJECT_TYPE":"PAYLOAD","DECAY_DATE":null,"PERIOD":"95.592","BSTAR":"-0.00004450500000","MEAN_ANOMALY":"287.3162","MEAN_MOTION_DDOT":"0.0000000000000","APOAPSIS":"548.128","REF_FRAME":"TEME","PERIAPSIS":"546.289","TLE_LINE1":"1 46565U 20070AK  22221.54204059 -.00000944  00000-0 -44505-4 0  9994","NORAD_CAT_ID":"46565","EPOCH":"2022-08-09T13:00:32.306976","LAUNCH_DATE":"2020-10-06","ELEMENT_SET_NO":"999","TLE_LINE2":"2 46565  53.0531 269.1302 0001328  72.7972 287.3162 15.06401618102617","SEMIMAJOR_AXIS":"6925.344","OBJECT_NAME":"STARLINK-1735","MEAN_MOTION":"15.06401618","MEAN_ELEMENT_THEORY":"SGP4","ARG_OF_PERICENTER":"72.7972","TIME_SYSTEM":"UTC","MEAN_MOTION_DOT":"-0.00000944","RCS_SIZE":"LARGE","SITE":"AFETR","REV_AT_EPOCH":"10261","INCLINATION":"53.0531"},{"TLE_LINE2":"2 46566  53.0554 269.1838 0001632  66.7623 293.3538 15.06403682102618","LAUNCH_DATE":"2020-10-06","ELEMENT_SET_NO":"999","EPOCH":"2022-08-09T12:39:18.745056","TLE_LINE1":"1 46566U 20070AL  22221.52730029  .00000667  00000-0  63696-4 0  9996","NORAD_CAT_ID":"46566","ARG_OF_PERICENTER":"66.7623","MEAN_MOTION":"15.06403682","MEAN_ELEMENT_THEORY":"SGP4","OBJECT_NAME":"STARLINK-1740","SEMIMAJOR_AXIS":"6925.337","MEAN_MOTION_DOT":"0.00000667","TIME_SYSTEM":"UTC","INCLINATION":"53.0554","REV_AT_EPOCH":"10261","SITE":"AFETR","RCS_SIZE":"LARGE","ECCENTRICITY":"0.00016320","CENTER_NAME":"EARTH","RA_OF_ASC_NODE":"269.1838","FILE":"3532882","CLASSIFICATION_TYPE":"U","GP_ID":"209896916","OBJECT_ID":"2020-070AL","COUNTRY_CODE":"US","EPHEMERIS_TYPE":"0","PERIOD":"95.592","DECAY_DATE":null,"OBJECT_TYPE":"PAYLOAD","PERIAPSIS":"546.072","REF_FRAME":"TEME","APOAPSIS":"548.332","MEAN_MOTION_DDOT":"0.0000000000000","MEAN_ANOMALY":"293.3538","BSTAR":"0.00006369600000"},{"INCLINATION":"53.0528","REV_AT_EPOCH":"10262","SITE":"AFETR","RCS_SIZE":"LARGE","MEAN_MOTION_DOT":"-0.00000433","TIME_SYSTEM":"UTC","ARG_OF_PERICENTER":"81.9399","MEAN_ELEMENT_THEORY":"SGP4","MEAN_MOTION":"15.06398680","OBJECT_NAME":"STARLINK-1741","SEMIMAJOR_AXIS":"6925.353","TLE_LINE2":"2 46567  53.0528 269.0450 0001314  81.9399 278.1739 15.06398680102621","ELEMENT_SET_NO":"999","LAUNCH_DATE":"2020-10-06","EPOCH":"2022-08-09T13:21:46.777824","NORAD_CAT_ID":"46567","TLE_LINE1":"1 46567U 20070AM  22221.55679141 -.00000433  00000-0 -10162-4 0  9990","PERIAPSIS":"546.308","REF_FRAME":"TEME","APOAPSIS":"548.128","MEAN_MOTION_DDOT":"0.0000000000000","MEAN_ANOMALY":"278.1739","BSTAR":"-0.00001016200000","PERIOD":"95.592","DECAY_DATE":null,"OBJECT_TYPE":"PAYLOAD","FILE":"3533123","GP_ID":"209925898","CLASSIFICATION_TYPE":"U","OBJECT_ID":"2020-070AM","COUNTRY_CODE":"US","EPHEMERIS_TYPE":"0","ECCENTRICITY":"0.00013140","CENTER_NAME":"EARTH","RA_OF_ASC_NODE":"269.0450"},{"PERIOD":"95.592","OBJECT_TYPE":"PAYLOAD","DECAY_DATE":null,"REF_FRAME":"TEME","APOAPSIS":"548.211","PERIAPSIS":"546.225","MEAN_ANOMALY":"300.2766","BSTAR":"-0.00000053543000","MEAN_MOTION_DDOT":"0.0000000000000","ECCENTRICITY":"0.00014340","CENTER_NAME":"EARTH","RA_OF_ASC_NODE":"269.2849","FILE":"3532882","EPHEMERIS_TYPE":"0","COUNTRY_CODE":"US","OBJECT_ID":"2020-070AP","CLASSIFICATION_TYPE":"U","GP_ID":"209896431","TIME_SYSTEM":"UTC","MEAN_MOTION_DOT":"-0.00000289","REV_AT_EPOCH":"10261","INCLINATION":"53.0545","RCS_SIZE":"LARGE","SITE":"AFETR","TLE_LINE2":"2 46569  53.0545 269.2849 0001434  59.8365 300.2766 15.06398570102610","ELEMENT_SET_NO":"999","LAUNCH_DATE":"2020-10-06","EPOCH":"2022-08-09T12:07:28.195680","NORAD_CAT_ID":"46569","TLE_LINE1":"1 46569U 20070AP  22221.50518745 -.00000289  00000-0 -53543-6 0  9990","MEAN_ELEMENT_THEORY":"SGP4","MEAN_MOTION":"15.06398570","OBJECT_NAME":"STARLINK-1747","ARG_OF_PERICENTER":"59.8365","SEMIMAJOR_AXIS":"6925.353"},{"PERIOD":"95.447","DECAY_DATE":null,"OBJECT_TYPE":"PAYLOAD","PERIAPSIS":"540.001","REF_FRAME":"TEME","APOAPSIS":"540.420","MEAN_MOTION_DDOT":"0.0000000000000","MEAN_ANOMALY":"58.3117","BSTAR":"0.00069311000000","ECCENTRICITY":"0.00003030","CENTER_NAME":"EARTH","RA_OF_ASC_NODE":"268.7500","FILE":"3532882","GP_ID":"209896680","CLASSIFICATION_TYPE":"U","COUNTRY_CODE":"US","OBJECT_ID":"2020-070AQ","EPHEMERIS_TYPE":"0","MEAN_MOTION_DOT":"0.00010716","TIME_SYSTEM":"UTC","REV_AT_EPOCH":"10261","INCLINATION":"53.0547","SITE":"AFETR","RCS_SIZE":"LARGE","TLE_LINE2":"2 46570  53.0547 268.7500 0000303 301.7844  58.3117 15.08687738102617","ELEMENT_SET_NO":"999","LAUNCH_DATE":"2020-10-06","EPOCH":"2022-08-09T11:35:26.383200","NORAD_CAT_ID":"46570","TLE_LINE1":"1 46570U 20070AQ  22221.48294425  .00010716  00000-0  69311-3 0  9996","ARG_OF_PERICENTER":"301.7844","MEAN_MOTION":"15.08687738","MEAN_ELEMENT_THEORY":"SGP4","OBJECT_NAME":"STARLINK-1748","SEMIMAJOR_AXIS":"6918.346"},{"REV_AT_EPOCH":"10233","INCLINATION":"53.0534","SITE":"AFETR","RCS_SIZE":"LARGE","MEAN_MOTION_DOT":"0.00003428","TIME_SYSTEM":"UTC","ARG_OF_PERICENTER":"60.7332","MEAN_MOTION":"15.06407666","MEAN_ELEMENT_THEORY":"SGP4","OBJECT_NAME":"STARLINK-1531","SEMIMAJOR_AXIS":"6925.325","TLE_LINE2":"2 46572  53.0534 289.1064 0001184  60.7332 299.3775 15.06407666102333","ELEMENT_SET_NO":"999","LAUNCH_DATE":"2020-10-06","EPOCH":"2022-08-09T13:01:49.604736","TLE_LINE1":"1 46572U 20070AS  22221.54293524  .00003428  00000-0  24883-3 0  9991","NORAD_CAT_ID":"46572","PERIAPSIS":"546.370","REF_FRAME":"TEME","APOAPSIS":"548.010","MEAN_MOTION_DDOT":"0.0000000000000","MEAN_ANOMALY":"299.3775","BSTAR":"0.00024883000000","PERIOD":"95.592","DECAY_DATE":null,"OBJECT_TYPE":"PAYLOAD","FILE":"3533123","GP_ID":"209927144","CLASSIFICATION_TYPE":"U","COUNTRY_CODE":"US","OBJECT_ID":"2020-070AS","EPHEMERIS_TYPE":"0","ECCENTRICITY":"0.00011840","CENTER_NAME":"EARTH","RA_OF_ASC_NODE":"289.1064"},{"TIME_SYSTEM":"UTC","MEAN_MOTION_DOT":"-0.00000687","RCS_SIZE":"LARGE","SITE":"AFETR","INCLINATION":"53.0549","REV_AT_EPOCH":"10253","EPOCH":"2022-08-09T10:53:47.219136","NORAD_CAT_ID":"46573","TLE_LINE1":"1 46573U 20070AT  22221.45401874 -.00000687  00000-0 -27192-4 0  9994","TLE_LINE2":"2 46573  53.0549 274.5041 0001554  58.0648 302.0492 15.06398995102538","LAUNCH_DATE":"2020-10-06","ELEMENT_SET_NO":"999","SEMIMAJOR_AXIS":"6925.352","MEAN_MOTION":"15.06398995","MEAN_ELEMENT_THEORY":"SGP4","OBJECT_NAME":"STARLINK-1650","ARG_OF_PERICENTER":"58.0648","OBJECT_TYPE":"PAYLOAD","DECAY_DATE":null,"PERIOD":"95.592","MEAN_ANOMALY":"302.0492","BSTAR":"-0.00002719200000","MEAN_MOTION_DDOT":"0.0000000000000","REF_FRAME":"TEME","APOAPSIS":"548.293","PERIAPSIS":"546.140","RA_OF_ASC_NODE":"274.5041","ECCENTRICITY":"0.00015540","CENTER_NAME":"EARTH","COUNTRY_CODE":"US","OBJECT_ID":"2020-070AT","EPHEMERIS_TYPE":"0","GP_ID":"209896180","CLASSIFICATION_TYPE":"U","FILE":"3532882"},{"EPOCH":"2022-08-09T13:45:00.155808","NORAD_CAT_ID":"46574","TLE_LINE1":"1 46574U 20070AU  22221.57291847  .00001724  00000-0  13457-3 0  9994","TLE_LINE2":"2 46574  53.0541 273.9934 0001493  75.7179 284.3976 15.06403045102556","LAUNCH_DATE":"2020-10-06","ELEMENT_SET_NO":"999","SEMIMAJOR_AXIS":"6925.339","ARG_OF_PERICENTER":"75.7179","MEAN_MOTION":"15.06403045","MEAN_ELEMENT_THEORY":"SGP4","OBJECT_NAME":"STARLINK-1660","MEAN_MOTION_DOT":"0.00001724","TIME_SYSTEM":"UTC","SITE":"AFETR","RCS_SIZE":"LARGE","INCLINATION":"53.0541","REV_AT_EPOCH":"10255","RA_OF_ASC_NODE":"273.9934","ECCENTRICITY":"0.00014930","CENTER_NAME":"EARTH","CLASSIFICATION_TYPE":"U","GP_ID":"209896930","OBJECT_ID":"2020-070AU","COUNTRY_CODE":"US","EPHEMERIS_TYPE":"0","FILE":"3532882","DECAY_DATE":null,"OBJECT_TYPE":"PAYLOAD","PERIOD":"95.592","MEAN_MOTION_DDOT":"0.0000000000000","MEAN_ANOMALY":"284.3976","BSTAR":"0.00013457000000","PERIAPSIS":"546.170","REF_FRAME":"TEME","APOAPSIS":"548.238"},{"MEAN_MOTION_DOT":"0.00002734","TIME_SYSTEM":"UTC","REV_AT_EPOCH":"10288","INCLINATION":"53.0538","SITE":"AFETR","RCS_SIZE":"LARGE","TLE_LINE2":"2 46575  53.0538 249.3409 0001743  63.2388 296.8779 15.06403019102885","LAUNCH_DATE":"2020-10-06","ELEMENT_SET_NO":"999","EPOCH":"2022-08-09T11:54:12.043008","TLE_LINE1":"1 46575U 20070AV  22221.49597272  .00002734  00000-0  20237-3 0  9993","NORAD_CAT_ID":"46575","ARG_OF_PERICENTER":"63.2388","MEAN_ELEMENT_THEORY":"SGP4","MEAN_MOTION":"15.06403019","OBJECT_NAME":"STARLINK-1675","SEMIMAJOR_AXIS":"6925.339","PERIOD":"95.592","DECAY_DATE":null,"OBJECT_TYPE":"PAYLOAD","PERIAPSIS":"545.997","REF_FRAME":"TEME","APOAPSIS":"548.411","MEAN_MOTION_DDOT":"0.0000000000000","MEAN_ANOMALY":"296.8779","BSTAR":"0.00020237000000","ECCENTRICITY":"0.00017430","CENTER_NAME":"EARTH","RA_OF_ASC_NODE":"249.3409","FILE":"3532882","GP_ID":"209897179","CLASSIFICATION_TYPE":"U","COUNTRY_CODE":"US","EPHEMERIS_TYPE":"0","OBJECT_ID":"2020-070AV"}];
